[{"OBJECT_NAME":"GAOFEN-11 02","OBJECT_ID":"2020-064A","EPOCH":"2026-03-09T22:52:21.157824","MEAN_MOTION":15.23715176,"ECCENTRICITY":0.0015622,"INCLINATION":97.4982,"RA_OF_ASC_NODE":194.9416,"ARG_OF_PERICENTER":294.7165,"MEAN_ANOMALY":65.2445,"EPHEMERIS_TYPE":0,"CLASSIFICATION_TYPE":"U","NORAD_CAT_ID":46396,"ELEMENT_SET_NO":999,"REV_AT_EPOCH":30642,"BSTAR":0.00039263481,"MEAN_MOTION_DOT":9.392e-5,"MEAN_MOTION_DDOT":0},{"OBJECT_NAME":"STARLINK-4572","OBJECT_ID":"2022-105AW","EPOCH":"2026-03-09T16:09:10.695744","MEAN_MOTION":15.21020685,"ECCENTRICITY":0.00018422,"INCLINATION":97.6182,"RA_OF_ASC_NODE":315.6347,"ARG_OF_PERICENTER":18.3505,"MEAN_ANOMALY":341.7796,"EPHEMERIS_TYPE":0,"CLASSIFICATION_TYPE":"U","NORAD_CAT_ID":53692,"ELEMENT_SET_NO":999,"REV_AT_EPOCH":19355,"BSTAR":0.00056421038,"MEAN_MOTION_DOT":0.00012459,"MEAN_MOTION_DDOT":0}]
